start=new Date('2022-06-17T00:00:00.000Z').valueOf();
sats=[{"MEAN_MOTION":"15.73227578","EPOCH":"2022-06-16T02:00:01.000224","PERIOD":"91.532","BSTAR":"0.00028006000000","COUNTRY_CODE":"US","APOAPSIS":"352.361","FILE":"3497002","EPHEMERIS_TYPE":"0","NORAD_CAT_ID":"52306","MEAN_ANOMALY":"307.9900","MEAN_ELEMENT_THEORY":"SGP4","ARG_OF_PERICENTER":"3.9011","OBJECT_ID":"2022-041AX","PERIAPSIS":"347.003","GP_ID":"206291635","REF_FRAME":"TEME","OBJECT_TYPE":"PAYLOAD","MEAN_MOTION_DDOT":"0.0000000000000","ECCENTRICITY":"0.00039820","TLE_LINE2":"2 52306  53.2162 100.6285 0003982   3.9011 307.9900 15.73227578  1304","SITE":"AFETR","RCS_SIZE":"LARGE","MEAN_MOTION_DOT":"0.00038924","REV_AT_EPOCH":"130","INCLINATION":"53.2162","RA_OF_ASC_NODE":"100.6285","SEMIMAJOR_AXIS":"6727.817","CENTER_NAME":"EARTH","OBJECT_NAME":"STARLINK-3747","CLASSIFICATION_TYPE":"U","TIME_SYSTEM":"UTC","LAUNCH_DATE":"2022-04-21","TLE_LINE1":"1 52306U 22041AX  22167.08334491  .00038924  00000-0  28006-3 0  9990","DECAY_DATE":null,"ELEMENT_SET_NO":"999"},{"SITE":"AFETR","RCS_SIZE":"LARGE","MEAN_MOTION_DOT":"-0.00712549","REV_AT_EPOCH":"130","RA_OF_ASC_NODE":"101.5144","INCLINATION":"53.2173","CENTER_NAME":"EARTH","SEMIMAJOR_AXIS":"6780.298","CLASSIFICATION_TYPE":"U","OBJECT_NAME":"STARLINK-3755","TLE_LINE1":"1 52307U 22041AY  22167.08334491 -.00712549  00000-0 -11407-1 0  9990","LAUNCH_DATE":"2022-04-21","TIME_SYSTEM":"UTC","DECAY_DATE":null,"ELEMENT_SET_NO":"999","MEAN_MOTION":"15.54997240","BSTAR":"-0.01140700000000","EPOCH":"2022-06-16T02:00:01.000224","PERIOD":"92.605","COUNTRY_CODE":"US","FILE":"3497002","APOAPSIS":"402.972","MEAN_ANOMALY":"188.4455","MEAN_ELEMENT_THEORY":"SGP4","ARG_OF_PERICENTER":"90.7228","EPHEMERIS_TYPE":"0","NORAD_CAT_ID":"52307","REF_FRAME":"TEME","OBJECT_TYPE":"PAYLOAD","OBJECT_ID":"2022-041AY","PERIAPSIS":"401.354","GP_ID":"206291532","ECCENTRICITY":"0.00011930","MEAN_MOTION_DDOT":"0.0000000000000","TLE_LINE2":"2 52307  53.2173 101.5144 0001193  90.7228 188.4455 15.54997240  1303"},{"MEAN_MOTION":"15.73222539","EPOCH":"2022-06-16T02:00:01.000224","PERIOD":"91.532","BSTAR":"0.00027663000000","COUNTRY_CODE":"US","FILE":"3497002","APOAPSIS":"352.322","EPHEMERIS_TYPE":"0","NORAD_CAT_ID":"52308","MEAN_ANOMALY":"310.1929","ARG_OF_PERICENTER":"2.8859","MEAN_ELEMENT_THEORY":"SGP4","PERIAPSIS":"347.069","OBJECT_ID":"2022-041AZ","GP_ID":"206291798","REF_FRAME":"TEME","OBJECT_TYPE":"PAYLOAD","MEAN_MOTION_DDOT":"0.0000000000000","ECCENTRICITY":"0.00039040","TLE_LINE2":"2 52308  53.2158 100.6267 0003904   2.8859 310.1929 15.73222539  1302","SITE":"AFETR","RCS_SIZE":"LARGE","MEAN_MOTION_DOT":"0.00038429","REV_AT_EPOCH":"130","INCLINATION":"53.2158","RA_OF_ASC_NODE":"100.6267","SEMIMAJOR_AXIS":"6727.831","CENTER_NAME":"EARTH","OBJECT_NAME":"STARLINK-3745","CLASSIFICATION_TYPE":"U","TIME_SYSTEM":"UTC","LAUNCH_DATE":"2022-04-21","TLE_LINE1":"1 52308U 22041AZ  22167.08334491  .00038429  00000-0  27663-3 0  9990","DECAY_DATE":null,"ELEMENT_SET_NO":"999"},{"CLASSIFICATION_TYPE":"U","OBJECT_NAME":"STARLINK-3756","CENTER_NAME":"EARTH","SEMIMAJOR_AXIS":"6727.671","DECAY_DATE":null,"ELEMENT_SET_NO":"999","TLE_LINE1":"1 52309U 22041BA  22167.08334491 -.00049805  00000-0 -35119-3 0  9998","TIME_SYSTEM":"UTC","LAUNCH_DATE":"2022-04-21","RCS_SIZE":"LARGE","SITE":"AFETR","RA_OF_ASC_NODE":"100.6291","INCLINATION":"53.2158","REV_AT_EPOCH":"130","MEAN_MOTION_DOT":"-0.00049805","REF_FRAME":"TEME","OBJECT_TYPE":"PAYLOAD","OBJECT_ID":"2022-041BA","PERIAPSIS":"347.142","GP_ID":"206291087","MEAN_ANOMALY":"309.6619","ARG_OF_PERICENTER":"2.8049","MEAN_ELEMENT_THEORY":"SGP4","EPHEMERIS_TYPE":"0","NORAD_CAT_ID":"52309","TLE_LINE2":"2 52309  53.2158 100.6291 0003559   2.8049 309.6619 15.73278540  1309","ECCENTRICITY":"0.00035590","MEAN_MOTION_DDOT":"0.0000000000000","MEAN_MOTION":"15.73278540","COUNTRY_CODE":"US","APOAPSIS":"351.931","FILE":"3497002","BSTAR":"-0.00035119000000","EPOCH":"2022-06-16T02:00:01.000224","PERIOD":"91.529"},{"RCS_SIZE":"LARGE","SITE":"AFETR","INCLINATION":"53.2159","RA_OF_ASC_NODE":"100.6242","MEAN_MOTION_DOT":"0.00045899","REV_AT_EPOCH":"130","OBJECT_NAME":"STARLINK-3688","CLASSIFICATION_TYPE":"U","SEMIMAJOR_AXIS":"6727.832","CENTER_NAME":"EARTH","DECAY_DATE":null,"ELEMENT_SET_NO":"999","LAUNCH_DATE":"2022-04-21","TIME_SYSTEM":"UTC","TLE_LINE1":"1 52310U 22041BB  22167.08334491  .00045899  00000-0  32926-3 0  9990","MEAN_MOTION":"15.73222295","COUNTRY_CODE":"US","FILE":"3497002","APOAPSIS":"352.312","EPOCH":"2022-06-16T02:00:01.000224","PERIOD":"91.532","BSTAR":"0.00032926000000","OBJECT_ID":"2022-041BB","PERIAPSIS":"347.082","GP_ID":"206291289","REF_FRAME":"TEME","OBJECT_TYPE":"PAYLOAD","EPHEMERIS_TYPE":"0","NORAD_CAT_ID":"52310","ARG_OF_PERICENTER":"8.7184","MEAN_ANOMALY":"305.5980","MEAN_ELEMENT_THEORY":"SGP4","TLE_LINE2":"2 52310  53.2159 100.6242 0003887   8.7184 305.5980 15.73222295  1309","MEAN_MOTION_DDOT":"0.0000000000000","ECCENTRICITY":"0.00038870"},{"SITE":"AFETR","RCS_SIZE":"LARGE","MEAN_MOTION_DOT":"-0.00049582","REV_AT_EPOCH":"130","INCLINATION":"53.2160","RA_OF_ASC_NODE":"100.6265","SEMIMAJOR_AXIS":"6727.667","CENTER_NAME":"EARTH","OBJECT_NAME":"STARLINK-3750","CLASSIFICATION_TYPE":"U","TIME_SYSTEM":"UTC","LAUNCH_DATE":"2022-04-21","TLE_LINE1":"1 52311U 22041BC  22167.08334491 -.00049582  00000-0 -34952-3 0  9997","DECAY_DATE":null,"ELEMENT_SET_NO":"999","MEAN_MOTION":"15.73280034","EPOCH":"2022-06-16T02:00:01.000224","PERIOD":"91.529","BSTAR":"-0.00034952000000","COUNTRY_CODE":"US","APOAPSIS":"352.211","FILE":"3497002","EPHEMERIS_TYPE":"0","NORAD_CAT_ID":"52311","MEAN_ANOMALY":"311.9060","ARG_OF_PERICENTER":"1.7546","MEAN_ELEMENT_THEORY":"SGP4","PERIAPSIS":"346.853","OBJECT_ID":"2022-041BC","GP_ID":"206291187","REF_FRAME":"TEME","OBJECT_TYPE":"PAYLOAD","MEAN_MOTION_DDOT":"0.0000000000000","ECCENTRICITY":"0.00039820","TLE_LINE2":"2 52311  53.2160 100.6265 0003982   1.7546 311.9060 15.73280034  1303"},{"RCS_SIZE":"LARGE","SITE":"AFETR","INCLINATION":"53.2161","RA_OF_ASC_NODE":"100.6227","MEAN_MOTION_DOT":"-0.00015220","REV_AT_EPOCH":"130","OBJECT_NAME":"STARLINK-3752","CLASSIFICATION_TYPE":"U","SEMIMAJOR_AXIS":"6727.722","CENTER_NAME":"EARTH","DECAY_DATE":null,"ELEMENT_SET_NO":"999","LAUNCH_DATE":"2022-04-21","TIME_SYSTEM":"UTC","TLE_LINE1":"1 52312U 22041BD  22167.08334491 -.00015220  00000-0 -10386-3 0  9995","MEAN_MOTION":"15.73260762","COUNTRY_CODE":"US","FILE":"3497002","APOAPSIS":"352.274","EPOCH":"2022-06-16T02:00:01.000224","PERIOD":"91.530","BSTAR":"-0.00010386000000","OBJECT_ID":"2022-041BD","PERIAPSIS":"346.900","GP_ID":"206291733","REF_FRAME":"TEME","OBJECT_TYPE":"PAYLOAD","EPHEMERIS_TYPE":"0","NORAD_CAT_ID":"52312","MEAN_ANOMALY":"307.1479","ARG_OF_PERICENTER":"7.7966","MEAN_ELEMENT_THEORY":"SGP4","TLE_LINE2":"2 52312  53.2161 100.6227 0003994   7.7966 307.1479 15.73260762  1305","MEAN_MOTION_DDOT":"0.0000000000000","ECCENTRICITY":"0.00039940"},{"PERIOD":"91.528","EPOCH":"2022-06-16T02:00:01.000224","BSTAR":"-0.00037061000000","APOAPSIS":"352.113","FILE":"3497002","COUNTRY_CODE":"US","MEAN_MOTION":"15.73287985","MEAN_MOTION_DDOT":"0.0000000000000","ECCENTRICITY":"0.00038700","TLE_LINE2":"2 52313  53.2164 100.6227 0003870   4.8689 310.5691 15.73287985  1302","NORAD_CAT_ID":"52313","EPHEMERIS_TYPE":"0","MEAN_ANOMALY":"310.5691","ARG_OF_PERICENTER":"4.8689","MEAN_ELEMENT_THEORY":"SGP4","GP_ID":"206291433","PERIAPSIS":"346.906","OBJECT_ID":"2022-041BE","OBJECT_TYPE":"PAYLOAD","REF_FRAME":"TEME","MEAN_MOTION_DOT":"-0.00052533","REV_AT_EPOCH":"130","INCLINATION":"53.2164","RA_OF_ASC_NODE":"100.6227","SITE":"AFETR","RCS_SIZE":"LARGE","TIME_SYSTEM":"UTC","LAUNCH_DATE":"2022-04-21","TLE_LINE1":"1 52313U 22041BE  22167.08334491 -.00052533  00000-0 -37061-3 0  9993","ELEMENT_SET_NO":"999","DECAY_DATE":null,"SEMIMAJOR_AXIS":"6727.644","CENTER_NAME":"EARTH","OBJECT_NAME":"STARLINK-3749","CLASSIFICATION_TYPE":"U"},{"MEAN_MOTION_DDOT":"0.0000000000000","ECCENTRICITY":"0.00016370","TLE_LINE2":"2 52331  53.2174 207.3371 0001637  41.0197  39.1419 15.31553435  1306","EPHEMERIS_TYPE":"0","NORAD_CAT_ID":"52331","ARG_OF_PERICENTER":"41.0197","MEAN_ANOMALY":"39.1419","MEAN_ELEMENT_THEORY":"SGP4","OBJECT_ID":"2022-045A","PERIAPSIS":"470.058","GP_ID":"206291089","REF_FRAME":"TEME","OBJECT_TYPE":"PAYLOAD","EPOCH":"2022-06-16T02:00:01.000224","PERIOD":"94.022","BSTAR":"-0.02510800000000","COUNTRY_CODE":"US","FILE":"3497002","APOAPSIS":"472.300","MEAN_MOTION":"15.31553435","TIME_SYSTEM":"UTC","LAUNCH_DATE":"2022-04-29","TLE_LINE1":"1 52331U 22045A   22167.08334491 -.00715938  00000-0 -25108-1 0  9999","DECAY_DATE":null,"ELEMENT_SET_NO":"999","SEMIMAJOR_AXIS":"6849.314","CENTER_NAME":"EARTH","OBJECT_NAME":"STARLINK-3889","CLASSIFICATION_TYPE":"U","REV_AT_EPOCH":"130","MEAN_MOTION_DOT":"-0.00715938","INCLINATION":"53.2174","RA_OF_ASC_NODE":"207.3371","SITE":"AFETR","RCS_SIZE":"LARGE"},{"TLE_LINE2":"2 52332  53.2174 207.3135 0001758  34.7822  16.7658 15.30958132  1301","MEAN_MOTION_DDOT":"0.0000000000000","ECCENTRICITY":"0.00017580","GP_ID":"206291291","OBJECT_ID":"2022-045B","PERIAPSIS":"471.750","OBJECT_TYPE":"PAYLOAD","REF_FRAME":"TEME","NORAD_CAT_ID":"52332","EPHEMERIS_TYPE":"0","MEAN_ANOMALY":"16.7658","ARG_OF_PERICENTER":"34.7822","MEAN_ELEMENT_THEORY":"SGP4","FILE":"3497002","APOAPSIS":"474.159","COUNTRY_CODE":"US","PERIOD":"94.059","EPOCH":"2022-06-16T02:00:01.000224","BSTAR":"-0.02554300000000","MEAN_MOTION":"15.30958132","ELEMENT_SET_NO":"999","DECAY_DATE":null,"LAUNCH_DATE":"2022-04-29","TIME_SYSTEM":"UTC","TLE_LINE1":"1 52332U 22045B   22167.08334491 -.00714972  00000-0 -25543-1 0  9990","OBJECT_NAME":"STARLINK-3831","CLASSIFICATION_TYPE":"U","SEMIMAJOR_AXIS":"6851.089","CENTER_NAME":"EARTH","INCLINATION":"53.2174","RA_OF_ASC_NODE":"207.3135","MEAN_MOTION_DOT":"-0.00714972","REV_AT_EPOCH":"130","RCS_SIZE":"LARGE","SITE":"AFETR"}];
